ISS OBJECT XW           
1 66910U 98067XW  26057.16113894  .00099250  00000+0  97035-3 0  9996
2 66910  51.6270 124.1650 0004297  26.6091 333.5124 15.65345766 13373
ISS OBJECT XX           
1 66911U 98067XX  26057.20366601  .00167232  00000+0  13418-2 0  9996
2 66911  51.6222 122.9394 0006459  20.7246 339.4012 15.69932275 13384
ISS OBJECT XY           
1 66912U 98067XY  26057.19729707  .00070649  00000+0  80918-3 0  9990
2 66912  51.6275 125.1674 0002349  31.0318 329.0814 15.61460528 13359
ISS OBJECT XZ           
1 67683U 98067XZ  26057.19664056  .00033889  00000+0  58122-3 0  9998
2 67683  51.6310 128.9116 0009813 147.9284 212.2304 15.50817458  3003
GXIBA-1                 
1 67684U 98067YA  26056.41169788  .00062280  00000+0  10031-2 0  9998
2 67684  51.6310 132.6717 0011314 136.6154 223.5729 15.52283656  2883
CORAL                   
1 67685U 98067YB  26056.42128185  .00038274  00000+0  65018-3 0  9998
2 67685  51.6309 132.7349 0011765 141.4592 218.7239 15.51003889  2883
ISS OBJECT YC           
1 67686U 98067YC  26055.51714998  .00045468  00000+0  76511-3 0  9994
2 67686  51.6312 137.1991 0007729 108.4650 251.7180 15.51233940  2743
LEOPARD                 
1 67687U 98067YD  26056.61546957  .00033259  00000+0  56938-3 0  9991
2 67687  51.6311 131.7822 0007710 115.1078 245.0712 15.50897316  2834
ISS OBJECT YE           
1 67688U 98067YE  26056.41999476  .00042562  00000+0  71855-3 0  9990
2 67688  51.6315 132.7279 0007609 111.7253 248.4547 15.51173026  2806
CREW DRAGON 12          
1 67796U 26031A   26056.57355615  .00009568  00000+0  18600-3 0  9998
2 67796  51.6319 132.2502 0008347 132.4308 227.7387 15.48286925554426
